[
    {
        "OBJECT_NAME": "NAVSTAR 61 (USA 199)",
        "OBJECT_ID": "2007-062A",
        "EPOCH": "2026-06-19T18:47:27.705120",
        "MEAN_MOTION": 2.00560219,
        "ECCENTRICITY": 0.00357825,
        "INCLINATION": 55.0295,
        "RA_OF_ASC_NODE": 274.0483,
        "ARG_OF_PERICENTER": 165.7534,
        "MEAN_ANOMALY": 8.6688,
        "EPHEMERIS_TYPE": 0,
        "CLASSIFICATION_TYPE": "U",
        "NORAD_CAT_ID": 32384,
        "ELEMENT_SET_NO": 999,
        "REV_AT_EPOCH": 13556,
        "BSTAR": 0,
        "MEAN_MOTION_DOT": -5.8e-07,
        "MEAN_MOTION_DDOT": 0
    },
    {
        "OBJECT_NAME": "NAVSTAR 62 (USA 201)",
        "OBJECT_ID": "2008-012A",
        "EPOCH": "2026-06-20T03:03:33.312960",
        "MEAN_MOTION": 2.00572494,
        "ECCENTRICITY": 0.0211322,
        "INCLINATION": 54.4978,
        "RA_OF_ASC_NODE": 149.8072,
        "ARG_OF_PERICENTER": 247.8806,
        "MEAN_ANOMALY": 109.8414,
        "EPHEMERIS_TYPE": 0,
        "CLASSIFICATION_TYPE": "U",
        "NORAD_CAT_ID": 32711,
        "ELEMENT_SET_NO": 999,
        "REV_AT_EPOCH": 13381,
        "BSTAR": 0,
        "MEAN_MOTION_DOT": 6.4e-07,
        "MEAN_MOTION_DDOT": 0
    },
    {
        "OBJECT_NAME": "NAVSTAR 63 (USA 203)",
        "OBJECT_ID": "2009-014A",
        "EPOCH": "2026-06-18T03:25:12.265248",
        "MEAN_MOTION": 2.00552341,
        "ECCENTRICITY": 0.01441948,
        "INCLINATION": 54.4832,
        "RA_OF_ASC_NODE": 210.6168,
        "ARG_OF_PERICENTER": 61.5698,
        "MEAN_ANOMALY": 4.4836,
        "EPHEMERIS_TYPE": 0,
        "CLASSIFICATION_TYPE": "U",
        "NORAD_CAT_ID": 34661,
        "ELEMENT_SET_NO": 999,
        "REV_AT_EPOCH": 12630,
        "BSTAR": 0,
        "MEAN_MOTION_DOT": 3.4e-07,
        "MEAN_MOTION_DDOT": 0
    },
    {
        "OBJECT_NAME": "NAVSTAR 64 (USA 206)",
        "OBJECT_ID": "2009-043A",
        "EPOCH": "2026-06-19T15:07:40.886112",
        "MEAN_MOTION": 2.0055411,
        "ECCENTRICITY": 0.00537577,
        "INCLINATION": 56.2119,
        "RA_OF_ASC_NODE": 27.3556,
        "ARG_OF_PERICENTER": 83.306,
        "MEAN_ANOMALY": 287.3304,
        "EPHEMERIS_TYPE": 0,
        "CLASSIFICATION_TYPE": "U",
        "NORAD_CAT_ID": 35752,
        "ELEMENT_SET_NO": 999,
        "REV_AT_EPOCH": 12341,
        "BSTAR": 0,
        "MEAN_MOTION_DOT": -9.3e-07,
        "MEAN_MOTION_DDOT": 0
    },
    {
        "OBJECT_NAME": "NAVSTAR 65 (USA 213)",
        "OBJECT_ID": "2010-022A",
        "EPOCH": "2026-06-19T22:43:09.643296",
        "MEAN_MOTION": 2.00562559,
        "ECCENTRICITY": 0.01263931,
        "INCLINATION": 54.27,
        "RA_OF_ASC_NODE": 208.4508,
        "ARG_OF_PERICENTER": 66.1309,
        "MEAN_ANOMALY": 291.649,
        "EPHEMERIS_TYPE": 0,
        "CLASSIFICATION_TYPE": "U",
        "NORAD_CAT_ID": 36585,
        "ELEMENT_SET_NO": 999,
        "REV_AT_EPOCH": 11764,
        "BSTAR": 0,
        "MEAN_MOTION_DOT": 3e-07,
        "MEAN_MOTION_DDOT": 0
    },
    {
        "OBJECT_NAME": "NAVSTAR 66 (USA 232)",
        "OBJECT_ID": "2011-036A",
        "EPOCH": "2026-06-20T08:20:17.076768",
        "MEAN_MOTION": 2.00562222,
        "ECCENTRICITY": 0.0141923,
        "INCLINATION": 56.5635,
        "RA_OF_ASC_NODE": 331.8965,
        "ARG_OF_PERICENTER": 62.5964,
        "MEAN_ANOMALY": 291.1694,
        "EPHEMERIS_TYPE": 0,
        "CLASSIFICATION_TYPE": "U",
        "NORAD_CAT_ID": 37753,
        "ELEMENT_SET_NO": 999,
        "REV_AT_EPOCH": 10933,
        "BSTAR": 0,
        "MEAN_MOTION_DOT": -9.1e-07,
        "MEAN_MOTION_DDOT": 0
    },
    {
        "OBJECT_NAME": "NAVSTAR 67 (USA 239)",
        "OBJECT_ID": "2012-053A",
        "EPOCH": "2026-06-20T07:22:56.303904",
        "MEAN_MOTION": 2.00567513,
        "ECCENTRICITY": 0.0180483,
        "INCLINATION": 53.5866,
        "RA_OF_ASC_NODE": 143.4715,
        "ARG_OF_PERICENTER": 65.8,
        "MEAN_ANOMALY": 296.0463,
        "EPHEMERIS_TYPE": 0,
        "CLASSIFICATION_TYPE": "U",
        "NORAD_CAT_ID": 38833,
        "ELEMENT_SET_NO": 999,
        "REV_AT_EPOCH": 9950,
        "BSTAR": 0,
        "MEAN_MOTION_DOT": 5.9e-07,
        "MEAN_MOTION_DDOT": 0
    },
    {
        "OBJECT_NAME": "NAVSTAR 68 (USA 242)",
        "OBJECT_ID": "2013-023A",
        "EPOCH": "2026-06-19T16:13:32.143872",
        "MEAN_MOTION": 2.00563426,
        "ECCENTRICITY": 0.01415048,
        "INCLINATION": 54.502,
        "RA_OF_ASC_NODE": 268.8722,
        "ARG_OF_PERICENTER": 51.0528,
        "MEAN_ANOMALY": 310.2374,
        "EPHEMERIS_TYPE": 0,
        "CLASSIFICATION_TYPE": "U",
        "NORAD_CAT_ID": 39166,
        "ELEMENT_SET_NO": 999,
        "REV_AT_EPOCH": 9593,
        "BSTAR": 0,
        "MEAN_MOTION_DOT": -5.2e-07,
        "MEAN_MOTION_DDOT": 0
    },
    {
        "OBJECT_NAME": "NAVSTAR 69 (USA 248)",
        "OBJECT_ID": "2014-008A",
        "EPOCH": "2026-06-20T04:13:54.016896",
        "MEAN_MOTION": 2.00559961,
        "ECCENTRICITY": 0.0084223,
        "INCLINATION": 53.6552,
        "RA_OF_ASC_NODE": 149.1977,
        "ARG_OF_PERICENTER": 231.3206,
        "MEAN_ANOMALY": 127.9004,
        "EPHEMERIS_TYPE": 0,
        "CLASSIFICATION_TYPE": "U",
        "NORAD_CAT_ID": 39533,
        "ELEMENT_SET_NO": 999,
        "REV_AT_EPOCH": 8974,
        "BSTAR": 0,
        "MEAN_MOTION_DOT": 6.3e-07,
        "MEAN_MOTION_DDOT": 0
    },
    {
        "OBJECT_NAME": "NAVSTAR 70 (USA 251)",
        "OBJECT_ID": "2014-026A",
        "EPOCH": "2026-06-19T22:52:42.473568",
        "MEAN_MOTION": 2.00560761,
        "ECCENTRICITY": 0.00381554,
        "INCLINATION": 56.4969,
        "RA_OF_ASC_NODE": 331.4097,
        "ARG_OF_PERICENTER": 326.5311,
        "MEAN_ANOMALY": 33.2215,
        "EPHEMERIS_TYPE": 0,
        "CLASSIFICATION_TYPE": "U",
        "NORAD_CAT_ID": 39741,
        "ELEMENT_SET_NO": 999,
        "REV_AT_EPOCH": 8859,
        "BSTAR": 0,
        "MEAN_MOTION_DOT": -9e-07,
        "MEAN_MOTION_DDOT": 0
    },
    {
        "OBJECT_NAME": "NAVSTAR 71 (USA 256)",
        "OBJECT_ID": "2014-045A",
        "EPOCH": "2026-06-20T01:04:53.387040",
        "MEAN_MOTION": 2.00558575,
        "ECCENTRICITY": 0.0033436,
        "INCLINATION": 55.355,
        "RA_OF_ASC_NODE": 88.3511,
        "ARG_OF_PERICENTER": 118.2269,
        "MEAN_ANOMALY": 242.1176,
        "EPHEMERIS_TYPE": 0,
        "CLASSIFICATION_TYPE": "U",
        "NORAD_CAT_ID": 40105,
        "ELEMENT_SET_NO": 999,
        "REV_AT_EPOCH": 8613,
        "BSTAR": 0,
        "MEAN_MOTION_DOT": -2.5e-07,
        "MEAN_MOTION_DDOT": 0
    },
    {
        "OBJECT_NAME": "NAVSTAR 72 (USA 258)",
        "OBJECT_ID": "2014-068A",
        "EPOCH": "2026-06-19T21:57:14.608224",
        "MEAN_MOTION": 2.00576333,
        "ECCENTRICITY": 0.00671132,
        "INCLINATION": 56.9895,
        "RA_OF_ASC_NODE": 30.8495,
        "ARG_OF_PERICENTER": 70.6969,
        "MEAN_ANOMALY": 290.0787,
        "EPHEMERIS_TYPE": 0,
        "CLASSIFICATION_TYPE": "U",
        "NORAD_CAT_ID": 40294,
        "ELEMENT_SET_NO": 999,
        "REV_AT_EPOCH": 8526,
        "BSTAR": 0,
        "MEAN_MOTION_DOT": -9.1e-07,
        "MEAN_MOTION_DDOT": 0
    },
    {
        "OBJECT_NAME": "NAVSTAR 73 (USA 260)",
        "OBJECT_ID": "2015-013A",
        "EPOCH": "2026-06-20T01:17:51.090720",
        "MEAN_MOTION": 2.00551222,
        "ECCENTRICITY": 0.01096019,
        "INCLINATION": 53.1677,
        "RA_OF_ASC_NODE": 204.0589,
        "ARG_OF_PERICENTER": 40.1558,
        "MEAN_ANOMALY": 320.7059,
        "EPHEMERIS_TYPE": 0,
        "CLASSIFICATION_TYPE": "U",
        "NORAD_CAT_ID": 40534,
        "ELEMENT_SET_NO": 999,
        "REV_AT_EPOCH": 8188,
        "BSTAR": 0,
        "MEAN_MOTION_DOT": 3.5e-07,
        "MEAN_MOTION_DDOT": 0
    }
]